{"type": "FeatureCollection", "features": [ {"type": "Feature", "properties": {"norad_id": 67020, "name": "STARLINK-36172", "group": "last-30-days", "lat": -46.236201144944836, "lon": -89.55658563386464, "alt_km": 323.8687743510027, "timestamp": "2025-12-23T09:49:05.800001+00:00", "meta": {"OBJECT_NAME": "STARLINK-36172", "OBJECT_ID": "2025-293T", "EPOCH": "2025-12-22T22:00:03.000096", "MEAN_MOTION": 15.85758406, "ECCENTRICITY": 0.00039634, "INCLINATION": 69.993, "RA_OF_ASC_NODE": 294.2198, "ARG_OF_PERICENTER": 265.6108, "MEAN_ANOMALY": 115.7618, "EPHEMERIS_TYPE": 0, "CLASSIFICATION_TYPE": "U", "NORAD_CAT_ID": 67020, "ELEMENT_SET_NO": 999, "REV_AT_EPOCH": 186, "BSTAR": -0.0078989273, "MEAN_MOTION_DOT": -0.01679389, "MEAN_MOTION_DDOT": 0}, "tle": {"line1": "1 67020U 25293T   25356.91670139 -.01679389  00000+0 -78989-2 0  9990", "line2": "2 67020  69.9930 294.2198 0003963 265.6108 115.7618 15.85758406  1860"}}, "geometry": {"type": "Point", "coordinates": [-89.55658563386464, -46.236201144944836]}}, {"type": "Feature", "properties": {"norad_id": 67021, "name": "STARLINK-36184", "group": "last-30-days", "lat": -43.94852955976702, "lon": -87.76161766187867, "alt_km": 323.9898400196107, "timestamp": "2025-12-23T09:49:05.800011+00:00", "meta": {"OBJECT_NAME": "STARLINK-36184", "OBJECT_ID": "2025-293U", "EPOCH": "2025-12-22T22:00:03.000096", "MEAN_MOTION": 15.85734401, "ECCENTRICITY": 0.00039199, "INCLINATION": 69.9931, "RA_OF_ASC_NODE": 294.2164, "ARG_OF_PERICENTER": 264.6833, "MEAN_ANOMALY": 119.3498, "EPHEMERIS_TYPE": 0, "CLASSIFICATION_TYPE": "U", "NORAD_CAT_ID": 67021, "ELEMENT_SET_NO": 999, "REV_AT_EPOCH": 186, "BSTAR": -0.0079033127, "MEAN_MOTION_DOT": -0.01678432, "MEAN_MOTION_DDOT": 0}, "tle": {"line1": "1 67021U 25293U   25356.91670139 -.01678432  00000+0 -79033-2 0  9990", "line2": "2 67021  69.9931 294.2164 0003919 264.6833 119.3498 15.85734401  1865"}}, "geometry": {"type": "Point", "coordinates": [-87.76161766187867, -43.94852955976702]}}, {"type": "Feature", "properties": {"norad_id": 67022, "name": "STARLINK-36209", "group": "last-30-days", "lat": -41.29920396584971, "lon": -85.87126880699243, "alt_km": 323.9130252508876, "timestamp": "2025-12-23T09:49:05.800021+00:00", "meta": {"OBJECT_NAME": "STARLINK-36209", "OBJECT_ID": "2025-293V", "EPOCH": "2025-12-22T22:00:03.000096", "MEAN_MOTION": 15.85699751, "ECCENTRICITY": 0.0004019, "INCLINATION": 69.9928, "RA_OF_ASC_NODE": 294.2129, "ARG_OF_PERICENTER": 267.7395, "MEAN_ANOMALY": 119.3487, "EPHEMERIS_TYPE": 0, "CLASSIFICATION_TYPE": "U", "NORAD_CAT_ID": 67022, "ELEMENT_SET_NO": 999, "REV_AT_EPOCH": 186, "BSTAR": -0.0078996378, "MEAN_MOTION_DOT": -0.01675409, "MEAN_MOTION_DDOT": 0}, "tle": {"line1": "1 67022U 25293V   25356.91670139 -.01675409  00000+0 -78996-2 0  9999", "line2": "2 67022  69.9928 294.2129 0004019 267.7395 119.3487 15.85699751  1868"}}, "geometry": {"type": "Point", "coordinates": [-85.87126880699243, -41.29920396584971]}}, {"type": "Feature", "properties": {"norad_id": 67023, "name": "STARLINK-36191", "group": "last-30-days", "lat": -39.045051219531, "lon": -84.39559296449184, "alt_km": 324.1009797991619, "timestamp": "2025-12-23T09:49:05.800033+00:00", "meta": {"OBJECT_NAME": "STARLINK-36191", "OBJECT_ID": "2025-293W", "EPOCH": "2025-12-22T22:00:03.000096", "MEAN_MOTION": 15.85678923, "ECCENTRICITY": 0.00039257, "INCLINATION": 69.9928, "RA_OF_ASC_NODE": 294.2093, "ARG_OF_PERICENTER": 265.1238, "MEAN_ANOMALY": 124.5251, "EPHEMERIS_TYPE": 0, "CLASSIFICATION_TYPE": "U", "NORAD_CAT_ID": 67023, "ELEMENT_SET_NO": 999, "REV_AT_EPOCH": 175, "BSTAR": -0.0079091563, "MEAN_MOTION_DOT": -0.01675564, "MEAN_MOTION_DDOT": 0}, "tle": {"line1": "1 67023U 25293W   25356.91670139 -.01675564  00000+0 -79092-2 0  9990", "line2": "2 67023  69.9928 294.2093 0003925 265.1238 124.5251 15.85678923  1755"}}, "geometry": {"type": "Point", "coordinates": [-84.39559296449184, -39.045051219531]}}, {"type": "Feature", "properties": {"norad_id": 67024, "name": "STARLINK-36192", "group": "last-30-days", "lat": -36.51808062022537, "lon": -82.86085656337997, "alt_km": 324.07702980765043, "timestamp": "2025-12-23T09:49:05.800043+00:00", "meta": {"OBJECT_NAME": "STARLINK-36192", "OBJECT_ID": "2025-293X", "EPOCH": "2025-12-22T22:00:03.000096", "MEAN_MOTION": 15.8565053, "ECCENTRICITY": 0.00039699, "INCLINATION": 69.993, "RA_OF_ASC_NODE": 294.2063, "ARG_OF_PERICENTER": 266.7754, "MEAN_ANOMALY": 125.731, "EPHEMERIS_TYPE": 0, "CLASSIFICATION_TYPE": "U", "NORAD_CAT_ID": 67024, "ELEMENT_SET_NO": 999, "REV_AT_EPOCH": 186, "BSTAR": -0.0079218488, "MEAN_MOTION_DOT": -0.01675933, "MEAN_MOTION_DDOT": 0}, "tle": {"line1": "1 67024U 25293X   25356.91670139 -.01675933  00000+0 -79218-2 0  9991", "line2": "2 67024  69.9930 294.2063 0003969 266.7754 125.7310 15.85650530  1869"}}, "geometry": {"type": "Point", "coordinates": [-82.86085656337997, -36.51808062022537]}}, {"type": "Feature", "properties": {"norad_id": 67025, "name": "STARLINK-36178", "group": "last-30-days", "lat": -34.38964145026389, "lon": -81.65324090446724, "alt_km": 324.04351286256315, "timestamp": "2025-12-23T09:49:05.800054+00:00", "meta": {"OBJECT_NAME": "STARLINK-36178", "OBJECT_ID": "2025-293Y", "EPOCH": "2025-12-22T22:00:03.000096", "MEAN_MOTION": 15.85636592, "ECCENTRICITY": 0.00039358, "INCLINATION": 69.9929, "RA_OF_ASC_NODE": 294.2033, "ARG_OF_PERICENTER": 268.1105, "MEAN_ANOMALY": 126.7676, "EPHEMERIS_TYPE": 0, "CLASSIFICATION_TYPE": "U", "NORAD_CAT_ID": 67025, "ELEMENT_SET_NO": 999, "REV_AT_EPOCH": 186, "BSTAR": -0.0079192126, "MEAN_MOTION_DOT": -0.01674415, "MEAN_MOTION_DDOT": 0}, "tle": {"line1": "1 67025U 25293Y   25356.91670139 -.01674415  00000+0 -79192-2 0  9997", "line2": "2 67025  69.9929 294.2033 0003935 268.1105 126.7676 15.85636592  1862"}}, "geometry": {"type": "Point", "coordinates": [-81.65324090446724, -34.38964145026389]}}, {"type": "Feature", "properties": {"norad_id": 67026, "name": "STARLINK-36176", "group": "last-30-days", "lat": -29.72753783919284, "lon": -79.22695613163062, "alt_km": 324.09567545760456, "timestamp": "2025-12-23T09:49:05.800069+00:00", "meta": {"OBJECT_NAME": "STARLINK-36176", "OBJECT_ID": "2025-293Z", "EPOCH": "2025-12-22T22:00:03.000096", "MEAN_MOTION": 15.85598109, "ECCENTRICITY": 0.00039404, "INCLINATION": 69.9927, "RA_OF_ASC_NODE": 294.197, "ARG_OF_PERICENTER": 267.5704, "MEAN_ANOMALY": 132.48, "EPHEMERIS_TYPE": 0, "CLASSIFICATION_TYPE": "U", "NORAD_CAT_ID": 67026, "ELEMENT_SET_NO": 999, "REV_AT_EPOCH": 186, "BSTAR": -0.0079522863, "MEAN_MOTION_DOT": -0.01677754, "MEAN_MOTION_DDOT": 0}, "tle": {"line1": "1 67026U 25293Z   25356.91670139 -.01677754  00000+0 -79523-2 0  9995", "line2": "2 67026  69.9927 294.1970 0003940 267.5704 132.4800 15.85598109  1868"}}, "geometry": {"type": "Point", "coordinates": [-79.22695613163062, -29.72753783919284]}}, {"type": "Feature", "properties": {"norad_id": 67027, "name": "STARLINK-36171", "group": "last-30-days", "lat": -31.762411941559932, "lon": -80.25265254174059, "alt_km": 324.05062378770435, "timestamp": "2025-12-23T09:49:05.800081+00:00", "meta": {"OBJECT_NAME": "STARLINK-36171", "OBJECT_ID": "2025-293AA", "EPOCH": "2025-12-22T22:00:03.000096", "MEAN_MOTION": 15.85606089, "ECCENTRICITY": 0.00039743, "INCLINATION": 69.9925, "RA_OF_ASC_NODE": 294.2, "ARG_OF_PERICENTER": 268.491, "MEAN_ANOMALY": 129.3205, "EPHEMERIS_TYPE": 0, "CLASSIFICATION_TYPE": "U", "NORAD_CAT_ID": 67027, "ELEMENT_SET_NO": 999, "REV_AT_EPOCH": 186, "BSTAR": -0.0079258253, "MEAN_MOTION_DOT": -0.0167351, "MEAN_MOTION_DDOT": 0}, "tle": {"line1": "1 67027U 25293AA  25356.91670139 -.01673510  00000+0 -79258-2 0  9997", "line2": "2 67027  69.9925 294.2000 0003974 268.4910 129.3205 15.85606089  1869"}}, "geometry": {"type": "Point", "coordinates": [-80.25265254174059, -31.762411941559932]}}, {"type": "Feature", "properties": {"norad_id": 67028, "name": "STARLINK-36132", "group": "last-30-days", "lat": -24.983718531692794, "lon": -76.99885015688292, "alt_km": 323.9338045637014, "timestamp": "2025-12-23T09:49:05.800093+00:00", "meta": {"OBJECT_NAME": "STARLINK-36132", "OBJECT_ID": "2025-293AB", "EPOCH": "2025-12-22T22:00:03.000096", "MEAN_MOTION": 15.85552861, "ECCENTRICITY": 0.00040117, "INCLINATION": 69.9929, "RA_OF_ASC_NODE": 294.191, "ARG_OF_PERICENTER": 270.323, "MEAN_ANOMALY": 134.947, "EPHEMERIS_TYPE": 0, "CLASSIFICATION_TYPE": "U", "NORAD_CAT_ID": 67028, "ELEMENT_SET_NO": 999, "REV_AT_EPOCH": 186, "BSTAR": -0.0079419595, "MEAN_MOTION_DOT": -0.01672735, "MEAN_MOTION_DDOT": 0}, "tle": {"line1": "1 67028U 25293AB  25356.91670139 -.01672735  00000+0 -79420-2 0  9997", "line2": "2 67028  69.9929 294.1910 0004011 270.3230 134.9470 15.85552861  1867"}}, "geometry": {"type": "Point", "coordinates": [-76.99885015688292, -24.983718531692794]}}, {"type": "Feature", "properties": {"norad_id": 67029, "name": "STARLINK-36190", "group": "last-30-days", "lat": -27.580180011882824, "lon": -78.19190143836214, "alt_km": 323.9750708572519, "timestamp": "2025-12-23T09:49:05.800103+00:00", "meta": {"OBJECT_NAME": "STARLINK-36190", "OBJECT_ID": "2025-293AC", "EPOCH": "2025-12-22T22:00:03.000096", "MEAN_MOTION": 15.85580268, "ECCENTRICITY": 0.0003978, "INCLINATION": 69.993, "RA_OF_ASC_NODE": 294.1947, "ARG_OF_PERICENTER": 269.4712, "MEAN_ANOMALY": 132.9376, "EPHEMERIS_TYPE": 0, "CLASSIFICATION_TYPE": "U", "NORAD_CAT_ID": 67029, "ELEMENT_SET_NO": 999, "REV_AT_EPOCH": 186, "BSTAR": -0.0079224356, "MEAN_MOTION_DOT": -0.01671059, "MEAN_MOTION_DDOT": 0}, "tle": {"line1": "1 67029U 25293AC  25356.91670139 -.01671059  00000+0 -79224-2 0  9998", "line2": "2 67029  69.9930 294.1947 0003978 269.4712 132.9376 15.85580268  1860"}}, "geometry": {"type": "Point", "coordinates": [-78.19190143836214, -27.580180011882824]}}]}